NORAD_CAT_ID,OBJECT_NAME,OBJECT_TYPE,EPOCH,MEAN_MOTION,ECCENTRICITY,INCLINATION,RA_OF_ASC_NODE,ARG_OF_PERICENTER,MEAN_ANOMALY,BSTAR,MEAN_MOTION_DOT,MEAN_MOTION_DDOT,TLE_LINE0,TLE_LINE1,TLE_LINE2,SEMIMAJOR_AXIS,PERIOD,APOGEE,PERIGEE,DECAYED
52490.0,STARLINK-3914,PAYLOAD,2023-09-03 14:35:29,15.08835138,0.0001761,53.2147,210.5497,92.1311,267.9883,9.8478e-06,-1.31e-06,0.0,0 STARLINK-3914,1 52490U 22049AR  23246.60797561 -.00000131  00000-0  98478-5 0  9992,2 52490  53.2147 210.5497 0001761  92.1311 267.9883 15.08835138 73953,6917.895,95.438,540.978,538.542,0.0
52490.0,STARLINK-3914,PAYLOAD,2023-09-04 06:29:20,15.08830971,0.0001775,53.2153,207.5757,91.1781,268.9414,-5.2566e-05,-1.124e-05,0.0,0 STARLINK-3914,1 52490U 22049AR  23247.27038115 -.00001124  00000-0 -52566-4 0  9990,2 52490  53.2153 207.5757 0001775  91.1781 268.9414 15.08830971 73894,6917.908,95.438,541.001,538.545,0.0
52490.0,STARLINK-3914,PAYLOAD,2023-09-04 23:58:35,15.08838063,0.0001678,53.2175,204.3071,97.0188,263.0995,0.00012259,1.663e-05,0.0,0 STARLINK-3914,1 52490U 22049AR  23247.99902056  .00001663  00000-0  12259-3 0  9993,2 52490  53.2175 204.3071 0001678  97.0188 263.0995 15.08838063 74161,6917.886,95.438,540.912,538.59,0.0
52490.0,STARLINK-3914,PAYLOAD,2023-09-06 03:00:08,15.0884238,0.0001598,53.2171,199.2515,91.1147,269.0028,0.00022045,3.222e-05,0.0,0 STARLINK-3914,1 52490U 22049AR  23249.12510067  .00003222  00000-0  22045-3 0  9994,2 52490  53.2171 199.2515 0001598  91.1147 269.0028 15.08842380 74332,6917.873,95.437,540.844,538.633,0.0
52490.0,STARLINK-3914,PAYLOAD,2023-09-06 20:29:23,15.0884423,0.0001556,53.2171,195.9815,85.6206,274.4964,7.4158e-05,8.93e-06,0.0,0 STARLINK-3914,1 52490U 22049AR  23249.85374027  .00000893  00000-0  74158-4 0  9992,2 52490  53.2171 195.9815 0001556  85.6206 274.4964 15.08844230 74285,6917.867,95.437,540.809,538.656,0.0
52490.0,STARLINK-3914,PAYLOAD,2023-09-06 23:40:09,15.08845468,0.0001517,53.218,195.3865,88.2935,271.8231,6.4496e-05,7.39e-06,0.0,0 STARLINK-3914,1 52490U 22049AR  23249.98622039  .00000739  00000-0  64496-4 0  9998,2 52490  53.2180 195.3865 0001517  88.2935 271.8231 15.08845468 74304,6917.864,95.437,540.778,538.679,0.0
52490.0,STARLINK-3914,PAYLOAD,2023-09-08 02:41:42,15.08848915,0.0001404,53.2183,190.3304,95.3938,264.7214,0.0001517,2.128e-05,0.0,0 STARLINK-3914,1 52490U 22049AR  23251.11229354  .00002128  00000-0  15170-3 0  9997,2 52490  53.2183 190.3304 0001404  95.3938 264.7214 15.08848915 74635,6917.853,95.437,540.689,538.747,0.0
52490.0,STARLINK-3914,PAYLOAD,2023-09-09 00:57:06,15.0883893,0.0001339,53.2186,186.1682,95.5374,264.5771,7.9322e-05,9.75e-06,0.0,0 STARLINK-3914,1 52490U 22049AR  23252.03966242  .00000975  00000-0  79322-4 0  9991,2 52490  53.2186 186.1682 0001339  95.5374 264.5771 15.08838930 74770,6917.884,95.438,540.675,538.822,0.0
52490.0,STARLINK-3914,PAYLOAD,2023-09-09 12:04:48,15.08839315,0.0001686,53.2181,184.0807,74.5106,285.6072,4.4227e-06,-2.18e-06,0.0,0 STARLINK-3914,1 52490U 22049AR  23252.50334166 -.00000218  00000-0  44227-5 0  9995,2 52490  53.2181 184.0807 0001686  74.5106 285.6072 15.08839315 74682,6917.882,95.438,540.914,538.581,0.0
52490.0,STARLINK-3914,PAYLOAD,2023-09-10 02:23:16,15.08849308,0.0001302,53.2172,181.4093,96.0108,264.1032,0.00016771,2.383e-05,0.0,0 STARLINK-3914,1 52490U 22049AR  23253.09949542  .00002383  00000-0  16771-3 0  9995,2 52490  53.2172 181.4093 0001302  96.0108 264.1032 15.08849308 74935,6917.852,95.437,540.618,538.816,0.0
52490.0,STARLINK-3914,PAYLOAD,2023-09-10 18:17:08,15.0883879,0.0001395,53.218,178.4398,107.2093,252.9052,5.236e-05,5.45e-06,0.0,0 STARLINK-3914,1 52490U 22049AR  23253.76190141  .00000545  00000-0  52360-4 0  9995,2 52490  53.2180 178.4398 0001395 107.2093 252.9052 15.08838790 75030,6917.884,95.438,540.714,538.784,0.0
52490.0,STARLINK-3914,PAYLOAD,2023-09-11 11:46:23,15.08835271,0.0001161,53.217,175.1622,76.7416,283.3706,-1.4297e-05,-5.15e-06,0.0,0 STARLINK-3914,1 52490U 22049AR  23254.49054500 -.00000515  00000-0 -14297-4 0  9990,2 52490  53.2170 175.1622 0001161  76.7416 283.3706 15.08835271 74981,6917.895,95.438,540.563,538.957,0.0
52490.0,STARLINK-3914,PAYLOAD,2023-09-11 18:07:55,15.08834571,0.0001096,53.2162,173.9735,84.5599,275.5518,6.2189e-05,7.02e-06,0.0,0 STARLINK-3914,1 52490U 22049AR  23254.75550839  .00000702  00000-0  62189-4 0  9994,2 52490  53.2162 173.9735 0001096  84.5599 275.5518 15.08834571 75188,6917.897,95.438,540.52,539.004,0.0
52490.0,STARLINK-3914,PAYLOAD,2023-09-12 02:04:50,15.08850684,0.0001116,53.2163,172.4873,88.5463,271.5657,0.00014961,2.095e-05,0.0,0 STARLINK-3914,1 52490U 22049AR  23255.08669993  .00002095  00000-0  14961-3 0  9994,2 52490  53.2163 172.4873 0001116  88.5463 271.5657 15.08850684 75232,6917.848,95.437,540.485,538.941,0.0
52490.0,STARLINK-3914,PAYLOAD,2023-09-12 03:40:13,15.08850953,0.0001152,53.2162,172.19,95.8995,264.2128,0.00020213,2.931e-05,0.0,0 STARLINK-3914,1 52490U 22049AR  23255.15293981  .00002931  00000-0  20213-3 0  9998,2 52490  53.2162 172.1900 0001152  95.8995 264.2128 15.08850953 75084,6917.847,95.437,540.509,538.915,0.0
52490.0,STARLINK-3914,PAYLOAD,2023-09-13 01:55:38,15.08852038,0.0001306,53.2171,168.0262,77.9053,282.2085,0.00029817,4.462e-05,0.0,0 STARLINK-3914,1 52490U 22049AR  23256.08030120  .00004462  00000-0  29817-3 0  9995,2 52490  53.2171 168.0262 0001306  77.9053 282.2085 15.08852038 75387,6917.844,95.437,540.612,538.805,0.0
52490.0,STARLINK-3914,PAYLOAD,2023-09-13 03:31:01,15.08857822,0.0001314,53.2169,167.7291,78.2599,281.854,0.00044662,6.831e-05,0.0,0 STARLINK-3914,1 52490U 22049AR  23256.14653948  .00006831  00000-0  44662-3 0  9998,2 52490  53.2169 167.7291 0001314  78.2599 281.8540 15.08857822 75231,6917.826,95.436,540.6,538.782,0.0
52490.0,STARLINK-3914,PAYLOAD,2023-09-14 01:46:24,15.08852695,0.0001287,53.2167,163.5686,86.8061,273.3079,0.00020912,3.043e-05,0.0,0 STARLINK-3914,1 52490U 22049AR  23257.07389718  .00003043  00000-0  20912-3 0  9996,2 52490  53.2167 163.5686 0001287  86.8061 273.3079 15.08852695 75538,6917.842,95.437,540.597,538.816,0.0
52490.0,STARLINK-3914,PAYLOAD,2023-09-14 03:21:47,15.0885561,0.0001319,53.2168,163.271,88.3584,271.7559,0.00025956,3.847e-05,0.0,0 STARLINK-3914,1 52490U 22049AR  23257.14013559  .00003847  00000-0  25956-3 0  9996,2 52490  53.2168 163.2710 0001319  88.3584 271.7559 15.08855610 75385,6917.833,95.437,540.61,538.785,0.0
52490.0,STARLINK-3914,PAYLOAD,2023-09-14 17:40:16,15.08835463,0.0001389,53.2168,160.5952,85.5181,274.5969,-0.00016344,-2.888e-05,0.0,0 STARLINK-3914,1 52490U 22049AR  23257.73630354 -.00002888  00000-0 -16344-3 0  9996,2 52490  53.2168 160.5952 0001389  85.5181 274.5969 15.08835463 75630,6917.894,95.438,540.72,538.798,0.0
52490.0,STARLINK-3914,PAYLOAD,2023-09-15 03:12:35,15.08842792,0.0001397,53.2169,158.8105,87.569,272.5462,-9.8267e-06,-4.44e-06,0.0,0 STARLINK-3914,1 52490U 22049AR  23258.13374303 -.00000444  00000-0 -98267-5 0  9992,2 52490  53.2169 158.8105 0001397  87.5690 272.5462 15.08842792 75535,6917.872,95.437,540.703,538.77,0.0
52490.0,STARLINK-3914,PAYLOAD,2023-09-16 03:03:22,15.08853355,0.0001381,53.217,154.3507,87.7701,272.3449,0.00022928,3.364e-05,0.0,0 STARLINK-3914,1 52490U 22049AR  23259.12734090  .00003364  00000-0  22928-3 0  9996,2 52490  53.2170 154.3507 0001381  87.7701 272.3449 15.08853355 75688,6917.84,95.437,540.66,538.749,0.0
52490.0,STARLINK-3914,PAYLOAD,2023-09-16 17:21:51,15.08837633,0.0002239,53.2186,151.6757,79.685,280.4394,0.00023449,3.445e-05,0.0,0 STARLINK-3914,1 52490U 22049AR  23259.72351400  .00003445  00000-0  23449-3 0  9991,2 52490  53.2186 151.6757 0002239  79.6850 280.4394 15.08837633 75938,6917.888,95.438,541.302,538.204,0.0
52490.0,STARLINK-3914,PAYLOAD,2023-09-16 23:43:23,15.08843532,0.0001574,53.2172,150.4853,97.3641,262.753,0.00026796,3.98e-05,0.0,0 STARLINK-3914,1 52490U 22049AR  23259.98847041  .00003980  00000-0  26796-3 0  9992,2 52490  53.2172 150.4853 0001574  97.3641 262.7530 15.08843532 75810,6917.87,95.437,540.823,538.646,0.0
52490.0,STARLINK-3914,PAYLOAD,2023-09-17 23:34:10,15.08851845,0.0001464,53.2167,146.0253,99.0779,261.0379,0.00027884,4.154e-05,0.0,0 STARLINK-3914,1 52490U 22049AR  23260.98206629  .00004154  00000-0  27884-3 0  9998,2 52490  53.2167 146.0253 0001464  99.0779 261.0379 15.08851845 76122,6917.844,95.437,540.722,538.696,0.0
52490.0,STARLINK-3914,PAYLOAD,2023-09-18 20:14:11,15.08841877,0.0001567,53.217,142.1616,106.6915,253.4249,0.00011566,1.553e-05,0.0,0 STARLINK-3914,1 52490U 22049AR  23261.84318926  .00001553  00000-0  11566-3 0  9998,2 52490  53.2170 142.1616 0001567 106.6915 253.4249 15.08841877 76098,6917.875,95.437,540.824,538.656,0.0
52490.0,STARLINK-3914,PAYLOAD,2023-09-18 23:24:57,15.08846998,0.0001477,53.2169,141.5655,101.8174,258.2984,0.00021012,3.058e-05,0.0,0 STARLINK-3914,1 52490U 22049AR  23261.97566715  .00003058  00000-0  21012-3 0  9992,2 52490  53.2169 141.5655 0001477 101.8174 258.2984 15.08846998 76274,6917.859,95.437,540.746,538.702,0.0
52490.0,STARLINK-3914,PAYLOAD,2023-09-19 02:35:43,15.08855945,0.0001526,53.2165,140.969,95.0739,265.0427,0.00036598,5.544e-05,0.0,0 STARLINK-3914,1 52490U 22049AR  23262.10814353  .00005544  00000-0  36598-3 0  9999,2 52490  53.2165 140.9690 0001526  95.0739 265.0427 15.08855945 76290,6917.832,95.437,540.752,538.641,0.0
52490.0,STARLINK-3914,PAYLOAD,2023-09-19 15:18:48,15.0885074,0.000159,53.2166,138.5926,85.7156,274.4018,0.00019186,2.768e-05,0.0,0 STARLINK-3914,1 52490U 22049AR  23262.63806349  .00002768  00000-0  19186-3 0  9992,2 52490  53.2166 138.5926 0001590  85.7156 274.4018 15.08850740 76373,6917.848,95.437,540.812,538.613,0.0
52490.0,STARLINK-3914,PAYLOAD,2023-09-20 08:48:03,15.0883227,0.0002005,53.2161,135.319,81.4713,278.6506,-0.00015807,-2.803e-05,0.0,0 STARLINK-3914,1 52490U 22049AR  23263.36670888 -.00002803  00000-0 -15807-3 0  9998,2 52490  53.2161 135.3190 0002005  81.4713 278.6506 15.08832270 76488,6917.904,95.438,541.156,538.382,0.0
